STARLINK-3540           
1 51719U 22016F   22064.25001157 -.00098121  00000+0 -70187-3 0  9997
2 51719  53.2172  81.9108 0001295  51.7044 237.2713 15.73233382  2521
STARLINK-3526           
1 51720U 22016G   22064.25001157 -.00087600  00000+0 -62505-3 0  9994
2 51720  53.2174  81.9075 0001469  58.2223 232.6148 15.73244099  2520
STARLINK-3524           
1 51721U 22016H   22064.25001157 -.00092169  00000+0 -65834-3 0  9999
2 51721  53.2171  81.9095 0001218  39.6611 249.9089 15.73241231  3112
STARLINK-3535           
1 51722U 22016J   22064.25001157 -.00084742  00000+0 -60425-3 0  9999
2 51722  53.2175  81.9038 0001412  55.4727 237.2766 15.73246378  2527
STARLINK-3531           
1 51723U 22016K   22064.25001157  .00017851  00000+0  10806-3 0  9993
2 51723  53.2205  81.6975 0003824 320.1825  73.9337 15.77710599  2523
STARLINK-3529           
1 51724U 22016L   22064.25001157 -.00053852  00000+0 -38127-3 0  9993
2 51724  53.2175  81.9016 0001527  58.2930 235.7591 15.73227950  2523
STARLINK-3522           
1 51725U 22016M   22064.25001157 -.00018829  00000+0 -13004-3 0  9996
2 51725  53.2194  81.9059 0001506  62.2497 229.8980 15.73199440  2520
STARLINK-3527           
1 51726U 22016N   22064.25001157 -.00048087  00000+0 -33921-3 0  9996
2 51726  53.2177  81.8994 0001282  63.7043 231.4988 15.73265166  3058
STARLINK-3532           
1 51727U 22016P   22064.25001157 -.00028880  00000+0 -20197-3 0  9997
2 51727  53.2195  81.9034 0001382  55.5105 237.9046 15.73210209  2529
STARLINK-3448           
1 51728U 22016Q   22064.25001157 -.00102813  00000+0 -73521-3 0  9996
2 51728  53.2178  81.8966 0001241  58.6417 237.9609 15.73260139  3127
STARLINK-3523           
1 51729U 22016R   22064.25001157 -.00080759  00000+0 -57582-3 0  9990
2 51729  53.2173  81.9000 0001414  50.7983 243.8664 15.73228395  2524
STARLINK-3530           
1 51730U 22016S   22064.25001157 -.00085138  00000+0 -60717-3 0  9992
2 51730  53.2179  81.8939 0001131  60.5247 237.3765 15.73245568  3050
STARLINK-3514           
1 51731U 22016T   22064.25001157  .00014120  00000+0  10495-3 0  9992
2 51731  53.2176  81.8975 0001330  55.5797 240.4218 15.73177701  2525
STARLINK-3518           
1 51732U 22016U   22064.25001157  .00005997  00000+0  47110-4 0  9990
2 51732  53.2180  81.8930 0001509  65.5286 233.0094 15.73202737  2522
STARLINK-3525           
1 51733U 22016V   22064.25001157 -.00097805  00000+0 -69915-3 0  9998
2 51733  53.2174  81.8947 0001232  50.3651 246.8960 15.73247467  3057
STARLINK-3450           
1 51734U 22016W   22064.25001157 -.00076118  00000+0 -54168-3 0  9997
2 51734  53.2180  81.8892 0001279  55.3408 245.0495 15.73250058  3100
STARLINK-3517           
1 51735U 22016X   22064.25001157 -.00054483  00000+0 -38563-3 0  9990
2 51735  53.2177  81.8912 0001283  68.4839 230.6834 15.73240015  3107
STARLINK-3447           
1 51736U 22016Y   22064.25001157 -.00042990  00000+0 -30374-3 0  9993
2 51736  53.2181  81.8866 0001388  55.9314 245.8003 15.73177851  2524
STARLINK-3509           
1 51737U 22016Z   22064.25001157 -.00081712  00000+0 -58267-3 0  9990
2 51737  53.2177  81.8898 0001419  68.6965 231.0948 15.73230730  2524
STARLINK-3515           
1 51738U 22016AA  22064.25001157 -.00044435  00000+0 -31420-3 0  9994
2 51738  53.2182  81.8844 0001716  65.4958 237.5135 15.73173120  2527
STARLINK-3516           
1 51739U 22016AB  22064.25001157 -.00018044  00000+0 -12453-3 0  9997
2 51739  53.2179  81.8875 0001309  58.0913 242.9959 15.73179681  3113
STARLINK-3500           
1 51740U 22016AC  22064.25001157 -.00058679  00000+0 -41608-3 0  9991
2 51740  53.2182  81.8803 0001166  58.4072 246.4972 15.73229117  3058
STARLINK-3520           
1 51741U 22016AD  22064.25001157 -.00121988  00000+0 -87552-3 0  9994
2 51741  53.2179  81.8848 0001096  59.5554 242.8048 15.73250628  3104
STARLINK-3521           
1 51742U 22016AE  22064.25001157 -.00031112  00000+0 -21789-3 0  9994
2 51742  53.2183  81.8792 0001265  58.5509 247.0004 15.73219718  2524
STARLINK-3512           
1 51743U 22016AF  22064.25001157  .00008648  00000+0  65969-4 0  9990
2 51743  53.2179  81.8826 0001431  71.1158 232.4516 15.73200699  2528
STARLINK-3452           
1 51744U 22016AG  22064.25001157 -.00080940  00000+0 -57669-3 0  9995
2 51744  53.2184  81.8768 0001120  71.8757 234.9181 15.73247080  2527
STARLINK-3449           
1 51745U 22016AH  22064.25001157 -.00035698  00000+0 -25101-3 0  9992
2 51745  53.2181  81.8813 0001624  64.9267 239.3591 15.73198770  2529
STARLINK-3502           
1 51746U 22016AJ  22064.25001157 -.00081895  00000+0 -58344-3 0  9998
2 51746  53.2184  81.8743 0001391  48.1087 259.9534 15.73253202  2527
STARLINK-3446           
1 51747U 22016AK  22064.25001157 -.00081980  00000+0 -58457-3 0  9999
2 51747  53.2181  81.8776 0001236  70.0936 236.0851 15.73233252  3124
STARLINK-3501           
1 51748U 22016AL  22064.25001157 -.00070366  00000+0 -50054-3 0  9991
2 51748  53.2184  81.8717 0001467  55.1074 254.2397 15.73227613  3059
STARLINK-3451           
1 51749U 22016AM  22064.25001157 -.00030512  00000+0 -21359-3 0  9997
2 51749  53.2181  81.8749 0001516  46.9355 260.4738 15.73218600  2522
STARLINK-3505           
1 51750U 22016AN  22064.25001157 -.00103910  00000+0 -74443-3 0  9994
2 51750  53.2186  81.8694 0001013  59.0914 251.5724 15.73222342  3105
STARLINK-3506           
1 51751U 22016AP  22064.25001157 -.00051362  00000+0 -36307-3 0  9995
2 51751  53.2182  81.8724 0001420  55.9264 252.7793 15.73244849  2521
STARLINK-3511           
1 51752U 22016AQ  22064.25001157 -.00024478  00000+0 -17032-3 0  9998
2 51752  53.2188  81.8683 0001621  56.1869 255.1089 15.73222713  3105
STARLINK-3507           
1 51753U 22016AR  22064.25001157 -.00084705  00000+0 -60409-3 0  9994
2 51753  53.2183  81.8701 0001400  51.1547 258.7967 15.73242406  2525
STARLINK-3457           
1 51754U 22016AS  22064.25001157 -.00018350  00000+0 -12652-3 0  9995
2 51754  53.2186  81.8653 0001568  56.3677 256.2056 15.73215932  2527
STARLINK-3460           
1 51755U 22016AT  22064.25001157  .00005114  00000+0  40823-4 0  9990
2 51755  53.2183  81.8662 0001442  66.5140 245.4185 15.73205196  2528
STARLINK-3513           
1 51756U 22016AU  22064.25001157 -.00083216  00000+0 -59342-3 0  9997
2 51756  53.2188  81.8647 0001321  51.8097 261.3637 15.73237444  3050
STARLINK-3459           
1 51757U 22016AV  22064.25001157 -.00088639  00000+0 -63232-3 0  9995
2 51757  53.2184  81.8625 0001249  52.1833 261.6640 15.73254930  3106
STARLINK-3458           
1 51758U 22016AW  22064.25001157 -.00016877  00000+0 -11616-3 0  9990
2 51758  53.2188  81.8619 0001534  46.4156 268.0547 15.73182234  3121
STARLINK-3456           
1 51759U 22016AX  22064.25001157 -.00088222  00000+0 -62939-3 0  9998
2 51759  53.2184  81.8598 0001561  56.9273 258.1724 15.73250308  2528
FALCON 9 DEB            
1 51760U 22016AY  22064.22780230  .00111720  00000+0  54564-3 0  9996
2 51760  53.2299  81.6358 0006348 305.9940  54.0495 15.81501103  1994
FALCON 9 DEB            
1 51761U 22016AZ  22064.22497475  .00127281  00000+0  60643-3 0  9997
2 51761  53.2279  81.6146 0005165 281.0184  79.0260 15.81989185  1995
FALCON 9 DEB            
1 51762U 22016BA  22064.21759999  .00133019  00000+0  60089-3 0  9999
2 51762  53.2249  81.5600 0009956 282.4331  77.5580 15.83055920  1999
FALCON 9 DEB            
1 51763U 22016BB  22064.21548476  .00124035  00000+0  55507-3 0  9993
2 51763  53.2236  81.5428 0009458 264.8056  95.1890 15.83292245  1992
STARLINK-3622           
1 51768U 22017A   22064.25001157 -.00874214  00000+0 -61007-2 0  9997
2 51768  53.2176 105.9727 0001398  50.7335 177.2233 15.76020923  2426
STARLINK-3621           
1 51769U 22017B   22064.25001157 -.00874146  00000+0 -60892-2 0  9993
2 51769  53.2176 105.9704 0001333  57.0674 171.9441 15.76062086  2425
STARLINK-3612           
1 51770U 22017C   22064.25001157 -.00874048  00000+0 -60948-2 0  9998
2 51770  53.2176 105.9717 0001254  63.0770 165.4190 15.76039309  2428
STARLINK-3614           
1 51771U 22017D   22064.25001157 -.00874286  00000+0 -60839-2 0  9992
2 51771  53.2176 105.9694 0001401  49.8121 179.7128 15.76085062  2425
STARLINK-3623           
1 51772U 22017E   22064.25001157 -.00874277  00000+0 -60659-2 0  9993
2 51772  53.2176 105.9664 0001399  50.1863 180.8856 15.76151538  2475
STARLINK-3624           
1 51773U 22017F   22064.25001157 -.00874234  00000+0 -60779-2 0  9990
2 51773  53.2176 105.9684 0001294  58.6221 171.4217 15.76106780  2435
STARLINK-3629           
1 51774U 22017G   22064.25001157 -.00874335  00000+0 -60550-2 0  9990
2 51774  53.2175 105.9642 0001284  60.5969 171.5086 15.76194702  2435
STARLINK-3620           
1 51775U 22017H   22064.25001157 -.00874208  00000+0 -60718-2 0  9996
2 51775  53.2176 105.9673 0001285  60.4410 170.1198 15.76128720  2427
STARLINK-3608           
1 51776U 22017J   22064.25001157 -.00874645  00000+0 -60506-2 0  9997
2 51776  53.2176 105.9633 0001547  41.3972 191.2176 15.76217438  2421
STARLINK-3625           
1 51777U 22017K   22064.25001157 -.00874345  00000+0 -60605-2 0  9995
2 51777  53.2176 105.9652 0001375  53.7717 177.8140 15.76173740  2435
STARLINK-3615           
1 51778U 22017L   22064.25001157 -.00880830  00000+0 -46072-2 0  9994
2 51778  53.2176 105.7729 0001083  58.9074 275.0695 15.82339644  2438
STARLINK-3611           
1 51779U 22017M   22064.25001157 -.00874444  00000+0 -60434-2 0  9997
2 51779  53.2176 105.9621 0001360  52.2684 180.8531 15.76240255  2427
STARLINK-3617           
1 51780U 22017N   22064.25001157 -.00874410  00000+0 -60196-2 0  9997
2 51780  53.2175 105.9581 0001255  63.4951 171.6606 15.76328948  2479
STARLINK-3580           
1 51781U 22017P   22064.25001157 -.00874429  00000+0 -60376-2 0  9998
2 51781  53.2176 105.9611 0001309  56.5834 177.0512 15.76261873  2433
